"nameText","ProjectID","officialLink","twitterLink","discordLink","telegramLink","cmcLink","introduceText","detailIntroText","categories","ecosystem","tokenContractAddress","nftContractAddress","communityNftContractAddress","contractAddressWebsite","protocolContractAddresses","twitterLogoLink","discordServerId"
"dYmension","","https://www.dymension.xyz/","https://twitter.com/dymension","https://discord.gg/dymension","https://t.me/dymensionXYZ","","Modular settlement layer","dYmension's blockchain platform is a modular settlement layer that provides all the tools and infrastructure needed to easily launch enshrined rollups as part of the Cosmos ecosystem. This opens up a whole new dimension of decentralized use cases. dYmension introduces a paradigm shift in scaling, allowing for a future where metaverse apps, games, and other ultra-high-throughput services can reside on the blockchain by easily deploying dedicated rollups tailored to their needs.","9: ""Infrastructure"",","9: ""Cosmos"",","","","","","","https://pbs.twimg.com/profile_images/1663159896701820928/by0GLREA_400x400.jpg","956961633165529098"
"StarkNet","","https://starknet.io/","https://twitter.com/Starknet","https://starknet.io/discord","","","decentralized ZK-Rollup","StarkNet is a permissionless, decentralized Validity-Rollup (also known as a ""ZK-Rollup""). It operates as an L2 network over Ethereum, enabling any dApp to achieve unlimited scalability for its computations without compromising Ethereum's composability and security. This is possible due to StarkNet's reliance on the safest and most scalable cryptographic proof system: STARK.","9: ""Infrastructure"",","1: ""Ethereum"",73: ""StarkNet"",","","","","","","https://pbs.twimg.com/profile_images/1656626805816565763/WyFDMG6u_400x400.png","793094838509764618"
"Avalanche","","https://www.avalabs.org/","https://twitter.com/Avax","https://chat.avax.network/","https://t.me/avalancheavax","https://coinmarketcap.com/currencies/avalanche/","Decentralized blockchain","Avalanche is a platform created by Ava Labs for creating custom blockchain networks and decentralized applications (dApps). It claims great scalability, with a high transaction throughput (TPS) of 4500 transactions per second. Its novel consensus protocol, Subnet infrastructure, and HyperSDK toolkit enable Web3 developers to easily launch powerful, custom blockchain solutions.","9: ""Infrastructure"",","7: ""Avalanche"",","$AVAX:FvwEAhmxKfeiG8SnEvq42hc6whRyY3EFYAvebMqDNDGCgxN5Z:avalanche","","","","","https://pbs.twimg.com/profile_images/1605605053901021184/9LNylZAA_400x400.png","578992315641626624"
"Sei Network","","https://www.sei.io/","https://twitter.com/SeiNetwork","https://discord.gg/sei","","https://coinmarketcap.com/currencies/sei/","Layer 1 blockchain for digital assets exchange","Sei is a general purpose, open-source Layer 1 blockchain specialized for the exchange of digital assets. Sei addresses the exchange scalability problem by building the first Layer 1 specialized for trading, optimizing every layer of the stack to offer the best infrastructure for the exchange of digital assets.","9: ""Infrastructure"",","13: ""Sei"",","","","","","","https://pbs.twimg.com/profile_images/1686378008230469632/DvhxRewX_400x400.jpg","973057323805311026"
"Saga","","https://www.saga.xyz/","https://twitter.com/Sagaxyz__","https://discord.gg/sagaxyz","https://t.me/sagaofficialchannel","","A protocol for automated deployment of application-specific blockchains","Saga is a Layer-1 protocol that allows developers to automatically spin up parallelized and interoperable dedicated chains that elastically scale with their Web3 application needs. Using shared security, cutting-edge validator orchestration and an automated deployment pipeline standardized across any kind of blockchain VM, Saga makes launching a dedicated chain, or Chainlet, as easy as deploying a smart contract.","9: ""Infrastructure"",","9: ""Cosmos"",","","","","","","https://pbs.twimg.com/profile_images/1508474357315616768/zcPXETKs_400x400.jpg","950275843949736006"
"Hyperlane","","https://www.hyperlane.xyz/","https://twitter.com/hyperlane_xyz","https://discord.com/invite/VK9ZUy3aTV","","","Cross-chain messaging protocol","Hyperlane is the platform for developers building the interchain universe. It provides an on-chain API for sending information between blockchains. Developers can use Hyperlane as an API to easily and securely communicate between blockchains, or they can utilize the Hyperlane SDK and tooling to quickly build interchain applications.","9: ""Infrastructure"",","1: ""Ethereum"", 4: ""Polygon"", 2: ""BSC"", 7: ""Avalanche"", 5: ""Arbitrum"", 6: ""Optimism"", 59: ""Celo"",","","","","","","https://pbs.twimg.com/profile_images/1671589406816313345/wGzRPeEf_400x400.jpg","935678348330434570"
"NEAR Protocol","","https://near.org/","https://twitter.com/NEARProtocol","https://discord.com/invite/zfhfRpaM4m","https://t.me/cryptonear","https://coinmarketcap.com/currencies/near-protocol/","Layer-one blockchain","NEAR is a sharded, proof-of-stake, layer-one blockchain that aims to incentivize a network of computers to operate a platform for developers to create and launch decentralized applications. Central to its design is the concept of sharding, a process that splits the network's infrastructure into several segments so that nodes only have to handle a fraction of the network's transactions. The NEAR mainnet went live in August 2020.","9: ""Infrastructure"",","51: ""NEAR"",","","","","","","https://pbs.twimg.com/profile_images/1631021064171196431/_ahCp9jR_400x400.jpg","490367152054992913"
"Chiliz","","https://www.chiliz.com/","https://twitter.com/chiliz","https://discord.gg/QsJ8dAnsDy","https://t.me/chiliz_io","https://coinmarketcap.com/currencies/chiliz/","Blockchain Fintech Provider for Sports and Entertainment","Chiliz is a blockchain fintech provider for sports and entertainment. They have developed the blockchain-based fan engagement and rewards platform Socios.com, which is built on the Chiliz blockchain infrastructure and uses CHZ as its exclusive on-platform currency. Fans can purchase and trade branded Fan Tokens, as well as having the ability to participate, influence, and vote in club-focused surveys and polls. Chiliz aims to create a blockchain ecosystem built for sports and entertainment.","9: ""Infrastructure"",","","$CHZ:0x3506424f91fd33084466f402d5d97f05f8e3b4af:ethereum","","","","","https://pbs.twimg.com/profile_images/1742511921897549824/SINt5-cG_400x400.png",""
"TinFun","","https://www.tinfun.com/","https://twitter.com/TinFunNFT","https://discord.gg/zGFrsD2XhH","","","Web3 Oriental Fantasy Adventure Game","TinFun is an oriental fantasy adventure NFT series. Its culture combines ancient Chinese classics as Taikoo and blockchain technology as the future. It aims to create PFP projects that integrate traditional Chinese culture and blockchain innovative content to support and assist the community. Different segmented cultures develop. TinFun prepares incentive plans to implement IP co-creation and incubation for community artists and fans.","2: ""NFT"",","1: ""Ethereum"",","","TinFun:0xC274a97F1691eF390F662067E95A6eFf1F99B504:ethereum","","","","https://pbs.twimg.com/profile_images/1635969534288089089/ALKwr2J3_400x400.jpg","1084554831500411030"
"Chromia","","https://chromia.com/","https://twitter.com/Chromia","https://discord.gg/chromia","https://t.me/hellochromia","https://coinmarketcap.com/currencies/chromia/","Blockchain platform","Chromia is a blockchain platform that makes it easy for people to build decentralized applications in the real world. The Chromia Platform was developed based on enterprise use cases, such as pioneering work done in land registration and e-currencies.","9: ""Infrastructure"",","80: ""Chromia"",","$CHR:0x8a2279d4a90b6fe1c4b30fa660cc9f926797baa2:ethereum","","","","","https://pbs.twimg.com/profile_images/1351493188809351168/QaU6uaug_400x400.jpg","1004724463658618910"
"EigenLayer","","https://www.eigenlayer.xyz/","https://twitter.com/eigenlayer","https://discord.com/invite/eigenlayer","","","The Ethereum Restaking Collective","EigenLayer is a protocol built on Ethereum that introduces restaking, a new primitive in cryptoeconomic security. This primitive enables the rehypothecation of ETH on the consensus layer. Users who stake ETH can opt-in to EigenLayer smart contracts to restake their ETH and extend cryptoeconomic security to additional applications on the network. Part of EigenLayer's potential lies in its ability to aggregate and extend cryptoeconomic security through restaking, and to validate new applications being built on top of Ethereum.","9: ""Infrastructure"",","1: ""Ethereum"",","","","","","","https://pbs.twimg.com/profile_images/1635879999264940033/_pozth32_400x400.jpg","1089434273720832071"
"Avail","","https://www.availproject.org/","https://twitter.com/AvailProject","https://discord.gg/y6fHnxZQX8","","","Modular blockchain focused on data availability","Avail is a blockchain that is laser-focused on data availability: ordering and recording blockchain transactions, and making it possible to prove that block data is available without downloading the entire block. This allows it to scale in ways that monolithic blockchains cannot. Off-chain scaling solutions can unlock their full potential by offloading data availability to Avail. Standalone chains can bootstrap validator security by leveraging Avail for data availability.","9: ""Infrastructure"",","1: ""Ethereum"",","","","","","","https://pbs.twimg.com/profile_images/1671126588694609920/THQgYJtf_400x400.png","1065831819154563132"
"The Root Network","","https://www.therootnetwork.com/","https://twitter.com/TheRootNetwork","http://discord.gg/therootnetwork","","https://coinmarketcap.com/currencies/the-root-network/","Decentralized blockchain network","The Root Network is a public decentralized blockchain network optimized for metaverse apps, games and experiences. The Root Network has a unique multi-token economy that enables the optimization of both gas and initial user onboarding. Users can onboard and use the native token of the application, or developers can delegate and pay fees on behalf of users. Developers set up a liquidity pool between their native token and the network GAS token.","9: ""Infrastructure"",","","$ROOT:0xa3d4BEe77B05d4a0C943877558Ce21A763C4fa29:ethereum","","","","","https://pbs.twimg.com/profile_images/1658639949246386176/6T1Tapl__400x400.jpg","864685888830963742"
"Celestia","","https://celestia.org/","https://twitter.com/CelestiaOrg","https://discord.com/invite/YsnTPcSfWQ","https://t.me/CelestiaCommunity","https://coinmarketcap.com/currencies/celestia/","Modular consensus and data availability network","Celestia is a modular blockchain network whose goal is to build a scalable data availability layer, enabling the next generation of scalable blockchain architectures - modular blockchains. Celestia scales by decoupling execution from consensus and introducing a new primitive, data availability sampling. It's built to enable anyone to easily deploy their own blockchain with minimal overhead.","9: ""Infrastructure"",","9: ""Cosmos"",","$TIA:ibc/D79E7D83AB399BFFF93433E54FAA480C191248FC556924A2A8351AE2638B3877:osmosis","","","","","https://pbs.twimg.com/profile_images/1404854187721203715/zZp1s7c3_400x400.jpg","638338779505229824"
"AltLayer","","https://altlayer.io/","https://alt.ws/twitter","https://discord.com/invite/altlayer","https://alt.ws/telegram","","Execution and elastic scaling layer as blockchain","AltLayer is a system of highly scalable, application-dedicated execution layers that derive security from an underlying L1/L2. It is designed as a modular and pluggable framework for a multi-chain and multi-VM world. At its core, AltLayer consists of several optimistic rollup-like execution layers called flash layers, featuring a novel innovation that makes them disposable and thus highly resource-optimized.","9: ""Infrastructure"",","1: ""Ethereum"",","$ALT:0x8457ca5040ad67fdebbcc8edce889a335bc0fbfb:ethereum","","","","","https://pbs.twimg.com/profile_images/1683698521600565248/_R1r5HsQ_400x400.jpg","954273304099815424"
"Berachain","","https://berachain.com/","https://twitter.com/berachain","https://discord.gg/berachain","","","A DeFi focused EVM-compatible L1","Berachain is a DeFi-focused, EVM-compatible Layer 1 built on the Cosmos SDK and powered by Proof of Liquidity Consensus.","9: ""Infrastructure"",","9: ""Cosmos"",","","","","","","https://pbs.twimg.com/profile_images/1503825007134142464/n2QLtggX_400x400.jpg","924442927399313448"
"Monad","","https://www.monad.xyz/","https://twitter.com/monad_xyz","https://discord.gg/monad","","","High-performance layer 1 blockchain","Monad is building a high-performance, Layer 1 blockchain for the next generation of decentralized applications. Monad's mission is to accelerate the disruptive force of decentralization by building a blockchain that is 100x to 1000x faster than its nearest competitors. This will alleviate severe bottlenecks in existing blockchains and enable more complex applications and wider adoption.","9: ""Infrastructure"",","78: ""Monad"",","","","","","","https://pbs.twimg.com/profile_images/1744741990498279424/Mon40JUX_400x400.jpg","1036357772826120242"
"Burnt","","https://www.burnt.com/","https://twitter.com/burnt_xion","https://discord.com/invite/burnt","https://t.me/burnt_announcements","","Creators of Xion","Burnt is evolving the future of Web3 with the introduction of XION, the first chain purpose-built for consumer adoption. XION is intended to remove technical crypto barriers for consumers, providing a toolkit that includes seamless fiat on/off ramps, direct credit card purchases, familiar Web2 logins, safe account abstraction for mobile support, and zero gas fees.","9: ""Infrastructure"",","9: ""Cosmos"",","","","","","","https://pbs.twimg.com/profile_images/1732416948950949888/t_jB0N2t_400x400.jpg","823953904512401469"
"Namada","","https://namada.net/","https://twitter.com/namada","https://discord.com/invite/namada","","","Proof-of-Stake L1 for interchain asset-agnostic privacy","Namada is a proof-of-stake Layer 1 for interchain asset-agnostic privacy. It natively interoperates with fast-finality chains via IBC and with Ethereum via a trustless two-way bridge. For privacy, Namada deploys an upgraded version of the Multi-Asset Shielded Pool (MASP) circuit, which allows all assets to share a common shielded set. Namada is Anoma's first fractal instance and deploys Version 1 of the Anoma protocol.","9: ""Infrastructure"",","9: ""Cosmos"",","","","","","","https://pbs.twimg.com/profile_images/1679825110373486593/oVAMywcF_400x400.jpg","833618405537218590"
"Polygon","","https://polygon.technology/","https://twitter.com/0xPolygon","https://discord.gg/tCmCbEff66","https://t.me/polygonofficial","https://coinmarketcap.com/currencies/polygon/","Decentralised Ethereum scaling platform","Polygon is a decentralized Ethereum scaling platform that enables developers to build user-friendly, scalable dApps with low transaction fees without compromising security.","9: ""Infrastructure"",","4: ""Polygon"",","","","","","","https://pbs.twimg.com/profile_images/1639270979288399876/3OT3Lsux_400x400.jpg","635865020172861441"